satname,norad_id,inclination_deg,eccentricity,mean_motion_rev_per_day,perigee_km,apogee_km,l1,l2
STARLINK-1372,45543,53.0529,0.0001162,15.06383272,546.4580958635079,548.0675587833775,1 45543U 20025N   25277.89661632  .00000418  00000+0  46960-4 0  9995,2 45543  53.0529  85.9989 0001162  79.1106 281.0013 15.06383272300701
STARLINK-1373,45544,53.0516,0.0001099,15.06403172,546.440741494087,547.9629309702905,1 45544U 20025P   25277.91505220  .00005096  00000+0  36074-3 0  9990,2 45544  53.0516  85.9178 0001099  84.0291 276.0823 15.06403172301613
STARLINK-1294,45551,53.0514,0.0006081,15.55585941,396.3278471603189,404.57196455522353,1 45551U 20025W   25278.31327676  .00070375  00000+0  10064-2 0  9992,2 45551  53.0514  26.7713 0006081 312.3868  47.6627 15.55585941302489
STARLINK-1323,45553,53.0343,0.0004385,16.00882371,269.0579085481777,274.89005587957854,1 45553U 20025Y   25278.58335647  .00512738  12711-3  93283-3 0  9995,2 45553  53.0343   4.0177 0004385  38.1824 351.3153 16.00882371  6044
STARLINK-1325,45554,53.0611,0.0006698,15.49293183,414.2399591639323,423.34512597916273,1 45554U 20025Z   25278.49388102  .00095798  00000+0  17091-2 0  9998,2 45554  53.0611  18.3115 0006698  14.5314 345.5885 15.49293183302623
STARLINK-1327,45555,53.054,0.0001284,15.06401142,546.3188435695347,548.0972721803973,1 45555U 20025AA  25278.41818740  .00005243  00000+0  37056-3 0  9997,2 45555  53.0540  63.6582 0001284  84.5843 275.5293 15.06401142301966
STARLINK-1336,45557,53.0409,0.0001421,15.95475312,286.0431923117576,287.93742149237823,1 45557U 20025AC  25278.58335647  .00408938  78148-4  10091-2 0  9997,2 45557  53.0409  10.0652 0001421  44.5874 222.4007 15.95475312  5849
STARLINK-1342,45558,53.0417,0.0004306,16.16137913,227.2132053325413,232.90418346455772,1 45558U 20025AD  25277.60782554  .05941265  10304+0  57446-2 0  9993,2 45558  53.0417  10.3949 0004306 346.2734  13.8185 16.16137913302635
STARLINK-1356,45564,53.054,0.000143,15.06392517,546.2441642270605,548.2248204738735,1 45564U 20025AK  25277.82473598  .00002068  00000+0  15770-3 0  9990,2 45564  53.0540  66.3208 0001430  91.7694 268.3458 15.06392517301876
STARLINK-1357,45565,53.0631,0.0006154,15.27953687,477.70868532385794,486.15205624381997,1 45565U 20025AL  25278.52484691  .00083532  00000+0  29992-2 0  9990,2 45565  53.0631  52.5129 0006154 185.9990 174.0935 15.27953687302137
STARLINK-1361,45567,53.0541,0.0001268,15.06388309,546.3692506606249,548.125528141778,1 45567U 20025AN  25277.71047219  .00000211  00000+0  33082-4 0  9993,2 45567  53.0541  66.8353 0001268  93.7686 266.3448 15.06388309301868
STARLINK-1363,45568,53.0536,0.0001429,15.0639985,546.222385292087,548.2016500413356,1 45568U 20025AP  25276.46465044  .00001011  00000+0  86731-4 0  9993,2 45568  53.0536  72.6686 0001429  80.4178 279.6972 15.06399850301665
STARLINK-1366,45569,53.0544,8.09e-05,15.06395795,546.6641839466683,547.784707428581,1 45569U 20025AQ  25277.71417490  .00002144  00000+0  16280-3 0  9994,2 45569  53.0544  66.8169 0000809  80.2834 279.8247 15.06395795301856
STARLINK-1376,45570,53.0535,0.0001302,15.06397745,546.3167879150315,548.1201504792107,1 45570U 20025AR  25275.84906893  .00002271  00000+0  17131-3 0  9995,2 45570  53.0535  75.1920 0001302  84.9206 275.1931 15.06397745301574
STARLINK-1320,45572,53.0616,0.0007989,15.38493865,445.10695243698683,456.01784833892725,1 45572U 20025AT  25278.44268036  .00085785  00000+0  22084-2 0  9999,2 45572  53.0616  13.1306 0007989 264.5456  95.4636 15.38493865302690
STARLINK-1321,45573,53.0554,0.00016,15.06403228,546.0936104145248,548.3097187871972,1 45573U 20025AU  25278.09103308  .00001984  00000+0  15206-3 0  9999,2 45573  53.0554  55.1246 0001600  83.6553 276.4618 15.06403228301759
STARLINK-1328,45576,53.0533,0.0005853,15.59418253,385.37864248048936,393.30065064295377,1 45576U 20025AX  25278.00002315  .00134134  00000+0  16437-2 0  9999,2 45576  53.0533  42.6259 0005853 293.3045 107.4168 15.59418253  5839
STARLINK-1331,45578,53.0534,0.0001207,15.06392998,546.3971259817399,548.0689103041204,1 45578U 20025AZ  25277.80354573  .00001857  00000+0  14355-3 0  9997,2 45578  53.0534  56.4156 0001207  86.4619 273.6508 15.06392998302022
STARLINK-1333,45580,53.0589,0.0001387,15.06398578,546.255369717428,548.1764626163722,1 45580U 20025BB  25278.40711802  .00000988  00000+0  85186-4 0  9994,2 45580  53.0589  63.7121 0001387  69.9147 290.1991 15.06398578301961
STARLINK-1335,45581,53.0551,0.0001388,15.06410144,546.2192341491564,548.1417022783326,1 45581U 20025BC  25278.34536971 -.00003739  00000+0 -23221-3 0  9990,2 45581  53.0551  53.9828 0001388  92.2581 267.8567 15.06410144302097
STARLINK-1337,45582,53.0541,0.000131,15.06357918,546.4332986526779,548.2477737671652,1 45582U 20025BD  25275.84631482 -.00005289  00000+0 -33684-3 0  9992,2 45582  53.0541  65.2048 0001310  94.5392 265.5746 15.06357918301718
STARLINK-1347,45586,53.0539,0.0005093,15.27302833,480.3843344261795,487.3739840859989,1 45586U 20025BH  25278.05096419  .00098540  00000+0  35997-2 0  9995,2 45586  53.0539  45.0657 0005093 203.6857 156.3907 15.27302833302189
STARLINK-1360,45588,53.0477,0.0005752,15.69680503,355.9354930826248,363.68682864688435,1 45588U 20025BK  25278.51979119  .00071227  00000+0  58796-3 0  9991,2 45588  53.0477 329.6228 0005752  23.4846 336.6432 15.69680503303293
STARLINK-1364,45589,53.0542,8.01e-05,15.06444545,546.5203278088939,547.6297467772683,1 45589U 20025BL  25276.38073781  .00016254  00000+0  11063-2 0  9999,2 45589  53.0542  62.8072 0000801  84.9543 275.1537 15.06444545301797
STARLINK-1365,45590,53.0535,0.0001361,15.06401514,546.2643784430138,548.1494570574259,1 45590U 20025BM  25277.85606539  .00001192  00000+0  98885-4 0  9991,2 45590  53.0535  86.1812 0001361  89.1296 270.9849 15.06401514301615
STARLINK-1443,45660,53.0544,0.0001929,15.06390321,545.905317378897,548.5771282972682,1 45660U 20035D   25277.64228189  .00002989  00000+0  21951-3 0  9992,2 45660  53.0544  47.1423 0001929  92.3833 267.7377 15.06390321295212
STARLINK-1446,45663,53.0268,0.0002944,15.30728705,471.61974373991416,475.6540682157547,1 45663U 20035G   25278.49133670  .00023837  00000+0  80107-3 0  9992,2 45663  53.0268  11.0033 0002944 184.5613 175.5360 15.30728705295792
STARLINK-1448,45665,53.0556,0.0001308,15.06400165,546.3052167118549,548.1168877623204,1 45665U 20035J   25278.30944125  .00005305  00000+0  37478-3 0  9992,2 45665  53.0556  44.1442 0001308  89.9134 270.2005 15.06400165295300
STARLINK-1451,45668,53.0535,0.0001208,15.06395535,546.3886587951001,548.0618263129008,1 45668U 20035M   25278.51219797  .00004569  00000+0  32549-3 0  9993,2 45668  53.0535  43.5508 0001208  85.3946 274.7180 15.06395535295347
STARLINK-1452,45669,53.0401,0.0007667,15.24097478,488.22838928455167,498.76535266230167,1 45669U 20035N   25278.47760707  .00069951  00000+0  28273-2 0  9995,2 45669  53.0401  28.1186 0007667 281.2256  78.7879 15.24097478295552
STARLINK-1453,45670,53.0551,0.000156,15.06409289,546.1027387036038,548.2634385712599,1 45670U 20035P   25278.52231692  .00016883  00000+0  11493-2 0  9991,2 45670  53.0551  13.1960 0001560  87.4141 272.7027 15.06409289295658
STARLINK-1454,45671,53.0536,0.0002223,15.06304211,545.9655827341858,549.0447232354018,1 45671U 20035Q   25278.33527676  .00042608  00000+0  28695-2 0  9997,2 45671  53.0536  44.0312 0002223  81.9019 278.2222 15.06304211295305
STARLINK-1456,45673,53.0544,0.0001171,15.06393377,546.4208958606587,548.0428172468628,1 45673U 20035S   25277.75285348  .00000686  00000+0  64956-4 0  9993,2 45673  53.0544  46.6473 0001171  86.3350 273.7773 15.06393377295234
STARLINK-1457,45674,53.0522,0.0002705,15.06237922,545.8349070409458,549.581789374327,1 45674U 20035T   25278.49009152 -.00088358  00000+0 -60128-2 0  9992,2 45674  53.0522  43.3365 0002705  29.5889 330.5252 15.06237922295311
STARLINK-1458,45675,53.0549,0.0001469,15.06410708,546.1614107727601,548.1960685370714,1 45675U 20035U   25278.34629628  .00005755  00000+0  40479-3 0  9999,2 45675  53.0549  43.9806 0001469  86.7208 273.3949 15.06410708295281
STARLINK-1460,45676,53.0529,0.0001161,15.06392928,546.4291972005049,548.037268168534,1 45676U 20035V   25278.51584861 -.00001711  00000+0 -96009-4 0  9999,2 45676  53.0529  43.2172 0001161  87.1448 272.9674 15.06392928295305
STARLINK-1392,45677,53.0553,0.000125,15.06392661,546.3683796262112,548.0997223889626,1 45677U 20035W   25278.32786992  .00003122  00000+0  22844-3 0  9999,2 45677  53.0553  44.0643 0001250  89.7451 270.3681 15.06392661295311
STARLINK-1394,45679,53.0565,0.0001195,15.06399343,546.3859921560843,548.0411509426858,1 45679U 20035Y   25278.32510185  .00005904  00000+0  41491-3 0  9999,2 45679  53.0565  34.0764 0001195  97.0049 263.1076 15.06399343295459
STARLINK-1402,45685,53.0568,0.0001237,15.06429879,546.2633303312505,547.9766389092456,1 45685U 20035AE  25278.48856185  .00015055  00000+0  10266-2 0  9999,2 45685  53.0568  27.7665 0001237 106.7886 253.3239 15.06429879295564
STARLINK-1404,45686,53.0564,0.0001238,15.06395205,546.3688939908125,548.0836139324929,1 45686U 20035AF  25278.48358992  .00003458  00000+0  25093-3 0  9992,2 45686  53.0564  33.3684 0001238  88.1292 271.9839 15.06395205295488
STARLINK-1413,45689,53.0545,0.0001125,15.06398112,546.4382420286556,547.9964467561431,1 45689U 20035AJ  25278.03759631  .00002159  00000+0  16377-3 0  9993,2 45689  53.0545  35.3636 0001125  89.4983 270.6135 15.06398112295323
STARLINK-1417,45693,53.0548,0.0001455,15.06394836,546.2197443817349,548.2350254177409,1 45693U 20035AN  25278.49833196  .00004323  00000+0  30895-3 0  9993,2 45693  53.0548  33.2998 0001455  78.9999 281.1154 15.06394836295478
STARLINK-1420,45695,53.0552,0.0001375,15.06408988,546.2317795107201,548.1362427887852,1 45695U 20035AQ  25278.49923756  .00003546  00000+0  25674-3 0  9992,2 45695  53.0552  13.2867 0001375  89.7282 270.3864 15.06408988295768
